[
  {
    "OBJECT_NAME": "METOP-C",
    "OBJECT_ID": "2018-087A",
    "EPOCH": "2025-05-10T20:52:46.226208",
    "MEAN_MOTION": 14.21475587,
    "ECCENTRICITY": 4.72e-05,
    "INCLINATION": 98.7172,
    "RA_OF_ASC_NODE": 191.5731,
    "ARG_OF_PERICENTER": 166.942,
    "MEAN_ANOMALY": 193.177,
    "EPHEMERIS_TYPE": 0,
    "CLASSIFICATION_TYPE": "U",
    "NORAD_CAT_ID": 43689,
    "ELEMENT_SET_NO": 999,
    "REV_AT_EPOCH": 33767,
    "BSTAR": 8.1066e-05,
    "MEAN_MOTION_DOT": 1.33e-06,
    "MEAN_MOTION_DDOT": 0
  },
  {
    "OBJECT_NAME": "GEO-KOMPSAT-2A",
    "OBJECT_ID": "2018-100A",
    "EPOCH": "2025-05-10T20:02:43.626624",
    "MEAN_MOTION": 1.00270402,
    "ECCENTRICITY": 0.000227,
    "INCLINATION": 0.0202,
    "RA_OF_ASC_NODE": 64.0988,
    "ARG_OF_PERICENTER": 8.5441,
    "MEAN_ANOMALY": 225.1732,
    "EPHEMERIS_TYPE": 0,
    "CLASSIFICATION_TYPE": "U",
    "NORAD_CAT_ID": 43823,
    "ELEMENT_SET_NO": 999,
    "REV_AT_EPOCH": 2362,
    "BSTAR": 0,
    "MEAN_MOTION_DOT": -3.31e-06,
    "MEAN_MOTION_DDOT": 0
  },
  {
    "OBJECT_NAME": "METEOR-M2 2",
    "OBJECT_ID": "2019-038A",
    "EPOCH": "2025-05-10T22:05:52.523520",
    "MEAN_MOTION": 14.24200047,
    "ECCENTRICITY": 0.0002381,
    "INCLINATION": 98.8729,
    "RA_OF_ASC_NODE": 108.3131,
    "ARG_OF_PERICENTER": 92.8859,
    "MEAN_ANOMALY": 267.2592,
    "EPHEMERIS_TYPE": 0,
    "CLASSIFICATION_TYPE": "U",
    "NORAD_CAT_ID": 44387,
    "ELEMENT_SET_NO": 999,
    "REV_AT_EPOCH": 30403,
    "BSTAR": 6.3611e-05,
    "MEAN_MOTION_DOT": 1.01e-06,
    "MEAN_MOTION_DDOT": 0
  },
  {
    "OBJECT_NAME": "ARKTIKA-M 1",
    "OBJECT_ID": "2021-016A",
    "EPOCH": "2025-05-10T05:53:54.766464",
    "MEAN_MOTION": 2.00602383,
    "ECCENTRICITY": 0.7090366,
    "INCLINATION": 63.1462,
    "RA_OF_ASC_NODE": 112.5222,
    "ARG_OF_PERICENTER": 268.5871,
    "MEAN_ANOMALY": 16.7372,
    "EPHEMERIS_TYPE": 0,
    "CLASSIFICATION_TYPE": "U",
    "NORAD_CAT_ID": 47719,
    "ELEMENT_SET_NO": 999,
    "REV_AT_EPOCH": 3070,
    "BSTAR": 0,
    "MEAN_MOTION_DOT": 8.8e-07,
    "MEAN_MOTION_DDOT": 0
  },
  {
    "OBJECT_NAME": "FENGYUN 3E",
    "OBJECT_ID": "2021-062A",
    "EPOCH": "2025-05-10T19:52:44.713920",
    "MEAN_MOTION": 14.19863456,
    "ECCENTRICITY": 0.000216,
    "INCLINATION": 98.7422,
    "RA_OF_ASC_NODE": 133.9185,
    "ARG_OF_PERICENTER": 136.6944,
    "MEAN_ANOMALY": 223.4402,
    "EPHEMERIS_TYPE": 0,
    "CLASSIFICATION_TYPE": "U",
    "NORAD_CAT_ID": 49008,
    "ELEMENT_SET_NO": 999,
    "REV_AT_EPOCH": 19948,
    "BSTAR": 2.9869e-05,
    "MEAN_MOTION_DOT": 1.9e-07,
    "MEAN_MOTION_DDOT": 0
  },
  {
    "OBJECT_NAME": "GOES 18",
    "OBJECT_ID": "2022-021A",
    "EPOCH": "2025-05-10T17:04:11.144640",
    "MEAN_MOTION": 1.00273271,
    "ECCENTRICITY": 4.07e-05,
    "INCLINATION": 0.0106,
    "RA_OF_ASC_NODE": 63.5797,
    "ARG_OF_PERICENTER": 37.6935,
    "MEAN_ANOMALY": 246.5325,
    "EPHEMERIS_TYPE": 0,
    "CLASSIFICATION_TYPE": "U",
    "NORAD_CAT_ID": 51850,
    "ELEMENT_SET_NO": 999,
    "REV_AT_EPOCH": 1177,
    "BSTAR": 0,
    "MEAN_MOTION_DOT": 1.09e-06,
    "MEAN_MOTION_DDOT": 0
  },
  {
    "OBJECT_NAME": "NOAA 21 (JPSS-2)",
    "OBJECT_ID": "2022-150A",
    "EPOCH": "2025-05-10T13:36:13.154688",
    "MEAN_MOTION": 14.19530287,
    "ECCENTRICITY": 4.52e-05,
    "INCLINATION": 98.7261,
    "RA_OF_ASC_NODE": 69.8769,
    "ARG_OF_PERICENTER": 249.0734,
    "MEAN_ANOMALY": 111.0394,
    "EPHEMERIS_TYPE": 0,
    "CLASSIFICATION_TYPE": "U",
    "NORAD_CAT_ID": 54234,
    "ELEMENT_SET_NO": 999,
    "REV_AT_EPOCH": 12942,
    "BSTAR": 6.161e-05,
    "MEAN_MOTION_DOT": 8.6e-07,
    "MEAN_MOTION_DDOT": 0
  },
  {
    "OBJECT_NAME": "METEOSAT-12 (MTG-I1)",
    "OBJECT_ID": "2022-170C",
    "EPOCH": "2025-05-10T14:17:30.916608",
    "MEAN_MOTION": 1.00276917,
    "ECCENTRICITY": 8.57e-05,
    "INCLINATION": 0.6597,
    "RA_OF_ASC_NODE": 36.8947,
    "ARG_OF_PERICENTER": 349.9066,
    "MEAN_ANOMALY": 55.8534,
    "EPHEMERIS_TYPE": 0,
    "CLASSIFICATION_TYPE": "U",
    "NORAD_CAT_ID": 54743,
    "ELEMENT_SET_NO": 999,
    "REV_AT_EPOCH": 894,
    "BSTAR": 0,
    "MEAN_MOTION_DOT": 5e-08,
    "MEAN_MOTION_DDOT": 0
  },
  {
    "OBJECT_NAME": "TIANMU-1 03",
    "OBJECT_ID": "2023-039A",
    "EPOCH": "2025-05-10T20:07:53.518368",
    "MEAN_MOTION": 15.34625257,
    "ECCENTRICITY": 0.0005404,
    "INCLINATION": 97.4973,
    "RA_OF_ASC_NODE": 288.8836,
    "ARG_OF_PERICENTER": 106.2113,
    "MEAN_ANOMALY": 253.9725,
    "EPHEMERIS_TYPE": 0,
    "CLASSIFICATION_TYPE": "U",
    "NORAD_CAT_ID": 55973,
    "ELEMENT_SET_NO": 999,
    "REV_AT_EPOCH": 11889,
    "BSTAR": 0.00035675,
    "MEAN_MOTION_DOT": 0.00011898,
    "MEAN_MOTION_DDOT": 0
  },
  {
    "OBJECT_NAME": "TIANMU-1 04",
    "OBJECT_ID": "2023-039B",
    "EPOCH": "2025-05-10T20:32:26.464704",
    "MEAN_MOTION": 15.34850247,
    "ECCENTRICITY": 0.0006205,
    "INCLINATION": 97.4902,
    "RA_OF_ASC_NODE": 288.2085,
    "ARG_OF_PERICENTER": 102.6916,
    "MEAN_ANOMALY": 257.5021,
    "EPHEMERIS_TYPE": 0,
    "CLASSIFICATION_TYPE": "U",
    "NORAD_CAT_ID": 55974,
    "ELEMENT_SET_NO": 999,
    "REV_AT_EPOCH": 11889,
    "BSTAR": 0.000351,
    "MEAN_MOTION_DOT": 0.00011791,
    "MEAN_MOTION_DDOT": 0
  },
  {
    "OBJECT_NAME": "TIANMU-1 05",
    "OBJECT_ID": "2023-039C",
    "EPOCH": "2025-05-10T20:57:30.253248",
    "MEAN_MOTION": 15.34601401,
    "ECCENTRICITY": 0.000498,
    "INCLINATION": 97.4949,
    "RA_OF_ASC_NODE": 288.6812,
    "ARG_OF_PERICENTER": 122.1551,
    "MEAN_ANOMALY": 238.0175,
    "EPHEMERIS_TYPE": 0,
    "CLASSIFICATION_TYPE": "U",
    "NORAD_CAT_ID": 55975,
    "ELEMENT_SET_NO": 999,
    "REV_AT_EPOCH": 11888,
    "BSTAR": 0.00034408,
    "MEAN_MOTION_DOT": 0.00011463,
    "MEAN_MOTION_DDOT": 0
  },
  {
    "OBJECT_NAME": "TIANMU-1 06",
    "OBJECT_ID": "2023-039D",
    "EPOCH": "2025-05-10T20:49:56.591904",
    "MEAN_MOTION": 15.34931037,
    "ECCENTRICITY": 0.0005414,
    "INCLINATION": 97.4963,
    "RA_OF_ASC_NODE": 288.9812,
    "ARG_OF_PERICENTER": 118.8837,
    "MEAN_ANOMALY": 241.295,
    "EPHEMERIS_TYPE": 0,
    "CLASSIFICATION_TYPE": "U",
    "NORAD_CAT_ID": 55976,
    "ELEMENT_SET_NO": 999,
    "REV_AT_EPOCH": 11889,
    "BSTAR": 0.00034566,
    "MEAN_MOTION_DOT": 0.00011638,
    "MEAN_MOTION_DDOT": 0
  },
  {
    "OBJECT_NAME": "METEOR-M2 3",
    "OBJECT_ID": "2023-091A",
    "EPOCH": "2025-05-10T20:10:03.728352",
    "MEAN_MOTION": 14.23996994,
    "ECCENTRICITY": 0.0002836,
    "INCLINATION": 98.6632,
    "RA_OF_ASC_NODE": 187.7615,
    "ARG_OF_PERICENTER": 254.0276,
    "MEAN_ANOMALY": 106.0591,
    "EPHEMERIS_TYPE": 0,
    "CLASSIFICATION_TYPE": "U",
    "NORAD_CAT_ID": 57166,
    "ELEMENT_SET_NO": 999,
    "REV_AT_EPOCH": 9725,
    "BSTAR": 2.8362e-05,
    "MEAN_MOTION_DOT": 2.1e-07,
    "MEAN_MOTION_DDOT": 0
  },
  {
    "OBJECT_NAME": "TIANMU-1 07",
    "OBJECT_ID": "2023-101A",
    "EPOCH": "2025-05-10T21:09:19.974816",
    "MEAN_MOTION": 15.24740433,
    "ECCENTRICITY": 0.0006092,
    "INCLINATION": 97.3133,
    "RA_OF_ASC_NODE": 185.6502,
    "ARG_OF_PERICENTER": 115.4633,
    "MEAN_ANOMALY": 244.7236,
    "EPHEMERIS_TYPE": 0,
    "CLASSIFICATION_TYPE": "U",
    "NORAD_CAT_ID": 57399,
    "ELEMENT_SET_NO": 999,
    "REV_AT_EPOCH": 10023,
    "BSTAR": 0.00027259,
    "MEAN_MOTION_DOT": 6.683e-05,
    "MEAN_MOTION_DDOT": 0
  },
  {
    "OBJECT_NAME": "TIANMU-1 08",
    "OBJECT_ID": "2023-101B",
    "EPOCH": "2025-05-10T20:20:48.151392",
    "MEAN_MOTION": 15.24743707,
    "ECCENTRICITY": 0.0008088,
    "INCLINATION": 97.3122,
    "RA_OF_ASC_NODE": 185.4494,
    "ARG_OF_PERICENTER": 120.3425,
    "MEAN_ANOMALY": 239.8614,
    "EPHEMERIS_TYPE": 0,
    "CLASSIFICATION_TYPE": "U",
    "NORAD_CAT_ID": 57400,
    "ELEMENT_SET_NO": 999,
    "REV_AT_EPOCH": 10022,
    "BSTAR": 0.00025811,
    "MEAN_MOTION_DOT": 6.327e-05,
    "MEAN_MOTION_DDOT": 0
  },
  {
    "OBJECT_NAME": "TIANMU-1 09",
    "OBJECT_ID": "2023-101C",
    "EPOCH": "2025-05-10T21:29:39.346656",
    "MEAN_MOTION": 15.24669171,
    "ECCENTRICITY": 0.0007283,
    "INCLINATION": 97.3076,
    "RA_OF_ASC_NODE": 185.1462,
    "ARG_OF_PERICENTER": 119.3758,
    "MEAN_ANOMALY": 240.8208,
    "EPHEMERIS_TYPE": 0,
    "CLASSIFICATION_TYPE": "U",
    "NORAD_CAT_ID": 57401,
    "ELEMENT_SET_NO": 999,
    "REV_AT_EPOCH": 10023,
    "BSTAR": 0.00028501,
    "MEAN_MOTION_DOT": 6.978e-05,
    "MEAN_MOTION_DDOT": 0
  },
  {
    "OBJECT_NAME": "TIANMU-1 10",
    "OBJECT_ID": "2023-101D",
    "EPOCH": "2025-05-10T20:41:40.074432",
    "MEAN_MOTION": 15.24650443,
    "ECCENTRICITY": 0.0009166,
    "INCLINATION": 97.3158,
    "RA_OF_ASC_NODE": 185.7365,
    "ARG_OF_PERICENTER": 120.556,
    "MEAN_ANOMALY": 239.6584,
    "EPHEMERIS_TYPE": 0,
    "CLASSIFICATION_TYPE": "U",
    "NORAD_CAT_ID": 57402,
    "ELEMENT_SET_NO": 999,
    "REV_AT_EPOCH": 10022,
    "BSTAR": 0.00026207,
    "MEAN_MOTION_DOT": 6.465e-05,
    "MEAN_MOTION_DDOT": 8.4037e-09
  },
  {
    "OBJECT_NAME": "FENGYUN 3F",
    "OBJECT_ID": "2023-111A",
    "EPOCH": "2025-05-10T21:28:59.943072",
    "MEAN_MOTION": 14.20038023,
    "ECCENTRICITY": 9.18e-05,
    "INCLINATION": 98.7277,
    "RA_OF_ASC_NODE": 202.3587,
    "ARG_OF_PERICENTER": 140.9023,
    "MEAN_ANOMALY": 219.222,
    "EPHEMERIS_TYPE": 0,
    "CLASSIFICATION_TYPE": "U",
    "NORAD_CAT_ID": 57490,
    "ELEMENT_SET_NO": 999,
    "REV_AT_EPOCH": 9177,
    "BSTAR": 6.2599e-05,
    "MEAN_MOTION_DOT": 8.9e-07,
    "MEAN_MOTION_DDOT": 0
  },
  {
    "OBJECT_NAME": "ARKTIKA-M 2",
    "OBJECT_ID": "2023-198A",
    "EPOCH": "2025-05-10T11:38:08.372832",
    "MEAN_MOTION": 2.00610693,
    "ECCENTRICITY": 0.6877283,
    "INCLINATION": 63.2279,
    "RA_OF_ASC_NODE": 198.5024,
    "ARG_OF_PERICENTER": 268.9598,
    "MEAN_ANOMALY": 18.4133,
    "EPHEMERIS_TYPE": 0,
    "CLASSIFICATION_TYPE": "U",
    "NORAD_CAT_ID": 58584,
    "ELEMENT_SET_NO": 999,
    "REV_AT_EPOCH": 1024,
    "BSTAR": 0,
    "MEAN_MOTION_DOT": 1.85e-06,
    "MEAN_MOTION_DDOT": 0
  }
]